[{"OBJECT_NAME":"HAWK-2C","OBJECT_ID":"2021-006CT","EPOCH":"2026-03-09T16:13:22.454976","MEAN_MOTION":15.33286436,"ECCENTRICITY":0.0006943,"INCLINATION":97.2417,"RA_OF_ASC_NODE":114.9961,"ARG_OF_PERICENTER":184.0877,"MEAN_ANOMALY":176.031,"EPHEMERIS_TYPE":0,"CLASSIFICATION_TYPE":"U","NORAD_CAT_ID":47502,"ELEMENT_SET_NO":999,"REV_AT_EPOCH":28424,"BSTAR":0.00025492914,"MEAN_MOTION_DOT":8.129e-5,"MEAN_MOTION_DDOT":0},{"OBJECT_NAME":"STARLINK-32816","OBJECT_ID":"2025-034X","EPOCH":"2026-03-09T21:08:36.542400","MEAN_MOTION":15.3020265,"ECCENTRICITY":8.564e-5,"INCLINATION":53.1603,"RA_OF_ASC_NODE":270.1885,"ARG_OF_PERICENTER":94.5988,"MEAN_ANOMALY":265.511,"EPHEMERIS_TYPE":0,"CLASSIFICATION_TYPE":"U","NORAD_CAT_ID":63050,"ELEMENT_SET_NO":999,"REV_AT_EPOCH":5893,"BSTAR":0.0010233222,"MEAN_MOTION_DOT":0.00030074,"MEAN_MOTION_DDOT":0}]
